[{"OBJECT_NAME":"STARLINK-30069","OBJECT_ID":"2023-079M","EPOCH":"2026-03-08T11:34:15.947328","MEAN_MOTION":15.26726881,"ECCENTRICITY":4.69e-5,"INCLINATION":42.9986,"RA_OF_ASC_NODE":110.4464,"ARG_OF_PERICENTER":272.6695,"MEAN_ANOMALY":87.4103,"EPHEMERIS_TYPE":0,"CLASSIFICATION_TYPE":"U","NORAD_CAT_ID":56834,"ELEMENT_SET_NO":999,"REV_AT_EPOCH":15274,"BSTAR":-8.0472e-5,"MEAN_MOTION_DOT":-2.416e-5,"MEAN_MOTION_DDOT":0},{"OBJECT_NAME":"STARLINK-32682","OBJECT_ID":"2024-229E","EPOCH":"2026-03-09T11:44:02.343264","MEAN_MOTION":15.27589471,"ECCENTRICITY":0.00012062,"INCLINATION":42.9945,"RA_OF_ASC_NODE":239.1712,"ARG_OF_PERICENTER":206.4951,"MEAN_ANOMALY":153.584,"EPHEMERIS_TYPE":0,"CLASSIFICATION_TYPE":"U","NORAD_CAT_ID":62196,"ELEMENT_SET_NO":999,"REV_AT_EPOCH":7090,"BSTAR":0.0011135019,"MEAN_MOTION_DOT":0.00030515,"MEAN_MOTION_DDOT":0}]
